CALSPHERE 1             
1 00900U 64063C   18247.53413821  .00000204  00000-0  20985-3 0  9990
2 00900  90.1478  18.1621 0026449 211.7500 211.4354 13.73126057680986
CALSPHERE 2             
1 00902U 64063E   18246.94708213  .00000040  00000-0  46862-4 0  9999
2 00902  90.1554  20.5579 0017710 194.6721 289.8769 13.52664086471878
LCS 1                   
1 01361U 65034C   18246.91597266  .00000001  00000-0 -94427-3 0  9996
2 01361  32.1418  87.8742 0013609 269.7440  90.1498  9.89294787928305
TEMPSAT 1               
1 01512U 65065E   18246.95275615  .00000028  00000-0  37897-4 0  9990
2 01512  89.8392 235.0343 0068401 313.2720  98.0495 13.33412558581135
CALSPHERE 4(A)          
1 01520U 65065H   18246.93181814  .00000024  00000-0  29078-4 0  9992
2 01520  90.0646 125.9569 0068773 201.1185 288.9280 13.35768697583087
OPS 5712 (P/L 160)      
1 02826U 67053A   18247.24239407  .00000364  00000-0  11338-3 0  9994
2 02826  69.9274 284.5356 0003214 159.4838 200.6425 14.48442568652972
OPS 5712 (P/L 153)      
1 02874U 67053H   18246.89734485 -.00000023  00000-0  22180-4 0  9994
2 02874  69.9726  86.2099 0010070 282.9383  77.0598 13.96316263609864
SURCAL 150B             
1 02909U 67053J   18247.23309189  .00000493  00000-0  11446-3 0  9993
2 02909  69.9497 337.6085 0005290 240.7058 119.3553 14.60897855662093
RIGIDSPHERE 2 (LCS 4)   
1 05398U 71067E   18247.20821032  .00000142  00000-0  43921-4 0  9996
2 05398  87.6213  44.0351 0061218 262.6606  96.7631 14.33722189466410
